STARLINK-2754
1 28641C 21044D   21325.17030990  .00000495  00000-0  33162-4 0  3256
2 28641  53.0550 327.4611 0001652  59.6817  63.1755 15.06400554    15
